ELYSIUM STAR 2 & LFF    
1 43760U 18099C   24190.91232494  .00041818  00000+0  15312-2 0  9992
2 43760  97.5153 258.6637 0007372 185.4344 174.6816 15.27879717306553
